$$SOE
2460714.500000000, A.D. 2025-Feb-08 00:00:00.0000, -2.615821468034147E+09, -1.215218384698658E+09, 1.512554707423475E+08,
2460721.500000000, A.D. 2025-Feb-15 00:00:00.0000, -2.614234507801103E+09, -1.219193053035455E+09, 1.516493773902944E+08,
2460728.500000000, A.D. 2025-Feb-22 00:00:00.0000, -2.612642286773864E+09, -1.223165352851277E+09, 1.520429789986253E+08,
2460735.500000000, A.D. 2025-Mar-01 00:00:00.0000, -2.611044807295589E+09, -1.227135276398172E+09, 1.524362746858913E+08,
2460742.500000000, A.D. 2025-Mar-08 00:00:00.0000, -2.609442070638993E+09, -1.231102816053996E+09, 1.528292634208719E+08,
2460749.500000000, A.D. 2025-Mar-15 00:00:00.0000, -2.607834077028554E+09, -1.235067962486941E+09, 1.532219441781049E+08,
2460756.500000000, A.D. 2025-Mar-22 00:00:00.0000, -2.606220827870885E+09, -1.239030704232982E+09, 1.536143161818046E+08,
2460763.500000000, A.D. 2025-Mar-29 00:00:00.0000, -2.604602326615771E+09, -1.242991029528039E+09, 1.540063788409966E+08,
2460770.500000000, A.D. 2025-Apr-05 00:00:00.0000, -2.602978577922641E+09, -1.246948927256406E+09, 1.543981316022367E+08,
2460777.500000000, A.D. 2025-Apr-12 00:00:00.0000, -2.601349587058415E+09, -1.250904386911264E+09, 1.547895739047559E+08,
2460784.500000000, A.D. 2025-Apr-19 00:00:00.0000, -2.599715359713925E+09, -1.254857398448325E+09, 1.551807051828943E+08,
2460791.500000000, A.D. 2025-Apr-26 00:00:00.0000, -2.598075901967247E+09, -1.258807952235339E+09, 1.555715248740515E+08,
2460798.500000000, A.D. 2025-May-03 00:00:00.0000, -2.596431220280272E+09, -1.262756039077866E+09, 1.559620324230695E+08,
2460805.500000000, A.D. 2025-May-10 00:00:00.0000, -2.594781321499924E+09, -1.266701650312329E+09, 1.563522272809515E+08,
2460812.500000000, A.D. 2025-May-17 00:00:00.0000, -2.593126212827295E+09, -1.270644778007036E+09, 1.567421088910669E+08,
2460819.500000000, A.D. 2025-May-24 00:00:00.0000, -2.591465901580774E+09, -1.274585415325370E+09, 1.571316766423398E+08,
2460826.500000000, A.D. 2025-May-31 00:00:00.0000, -2.589800394335399E+09, -1.278523556739906E+09, 1.575209297764705E+08,
2460833.500000000, A.D. 2025-Jun-07 00:00:00.0000, -2.588129695839372E+09, -1.282459196892445E+09, 1.579098673844008E+08,
2460840.500000000, A.D. 2025-Jun-14 00:00:00.0000, -2.586453810072295E+09, -1.286392328766616E+09, 1.582984886544052E+08,
2460847.500000000, A.D. 2025-Jun-21 00:00:00.0000, -2.584772742228347E+09, -1.290322944444231E+09, 1.586867929928892E+08,
2460854.500000000, A.D. 2025-Jun-28 00:00:00.0000, -2.583086498496228E+09, -1.294251036680515E+09, 1.590747798752217E+08,
2460861.500000000, A.D. 2025-Jul-05 00:00:00.0000, -2.581395085152565E+09, -1.298176599141621E+09, 1.594624487419881E+08,
2460868.500000000, A.D. 2025-Jul-12 00:00:00.0000, -2.579698508159807E+09, -1.302099626109572E+09, 1.598497989841516E+08,
2460875.500000000, A.D. 2025-Jul-19 00:00:00.0000, -2.577996773079013E+09, -1.306020112229584E+09, 1.602368299528057E+08,
2460882.500000000, A.D. 2025-Jul-26 00:00:00.0000, -2.576289885087623E+09, -1.309938052356178E+09, 1.606235409697251E+08,
2460889.500000000, A.D. 2025-Aug-02 00:00:00.0000, -2.574577849036804E+09, -1.313853441476272E+09, 1.610099313345962E+08,
2460896.500000000, A.D. 2025-Aug-09 00:00:00.0000, -2.572860669524980E+09, -1.317766274723650E+09, 1.613960003257271E+08,
2460903.500000000, A.D. 2025-Aug-16 00:00:00.0000, -2.571138350910572E+09, -1.321676547547790E+09, 1.617817471821874E+08,
2460910.500000000, A.D. 2025-Aug-23 00:00:00.0000, -2.569410896971356E+09, -1.325584256020254E+09, 1.621671710420912E+08,
2460917.500000000, A.D. 2025-Aug-30 00:00:00.0000, -2.567678309881462E+09, -1.329489396564393E+09, 1.625522708654418E+08,
2460924.500000000, A.D. 2025-Sep-06 00:00:00.0000, -2.565940589924184E+09, -1.333391964107886E+09, 1.629370455536057E+08,
2460931.500000000, A.D. 2025-Sep-13 00:00:00.0000, -2.564197737611324E+09, -1.337291951140833E+09, 1.633214942159995E+08,
2460938.500000000, A.D. 2025-Sep-20 00:00:00.0000, -2.562449754935852E+09, -1.341189349323688E+09, 1.637056161496370E+08,
2460945.500000000, A.D. 2025-Sep-27 00:00:00.0000, -2.560696644699337E+09, -1.345084150533284E+09, 1.640894106889466E+08,
2460952.500000000, A.D. 2025-Oct-04 00:00:00.0000, -2.558938409930838E+09, -1.348976346807558E+09, 1.644728771550705E+08,
2460959.500000000, A.D. 2025-Oct-11 00:00:00.0000, -2.557175053770898E+09, -1.352865930131783E+09, 1.648560148619617E+08,
2460966.500000000, A.D. 2025-Oct-18 00:00:00.0000, -2.555406579536998E+09, -1.356752892340467E+09, 1.652388231308742E+08,
2460973.500000000, A.D. 2025-Oct-25 00:00:00.0000, -2.553632990830922E+09, -1.360637225123580E+09, 1.656213013013141E+08,
2460980.500000000, A.D. 2025-Nov-01 00:00:00.0000, -2.551854291648632E+09, -1.364518920121217E+09, 1.660034487359990E+08,
2460987.500000000, A.D. 2025-Nov-08 00:00:00.0000, -2.550070486458148E+09, -1.368397969137663E+09, 1.663852648139336E+08,
2460994.500000000, A.D. 2025-Nov-15 00:00:00.0000, -2.548281580097628E+09, -1.372274364532941E+09, 1.667667488930593E+08,
2461001.500000000, A.D. 2025-Nov-22 00:00:00.0000, -2.546487577090981E+09, -1.376148099571280E+09, 1.671479002233152E+08,
2461008.500000000, A.D. 2025-Nov-29 00:00:00.0000, -2.544688480534344E+09, -1.380019167591085E+09, 1.675287179166997E+08,
2461015.500000000, A.D. 2025-Dec-06 00:00:00.0000, -2.542884292830812E+09, -1.383887560132011E+09, 1.679092011719095E+08,
2461022.500000000, A.D. 2025-Dec-13 00:00:00.0000, -2.541075017839885E+09, -1.387753267389116E+09, 1.682893494381829E+08,
2461029.500000000, A.D. 2025-Dec-20 00:00:00.0000, -2.539260660948420E+09, -1.391616279970596E+09, 1.686691622814491E+08,
2461036.500000000, A.D. 2025-Dec-27 00:00:00.0000, -2.537441228136943E+09, -1.395476589367351E+09, 1.690486392629728E+08,
2461043.500000000, A.D. 2026-Jan-03 00:00:00.0000, -2.535616725500532E+09, -1.399334187749400E+09, 1.694277799140060E+08,
2461050.500000000, A.D. 2026-Jan-10 00:00:00.0000, -2.533787159114497E+09, -1.403189067767362E+09, 1.698065837409347E+08,
2461057.500000000, A.D. 2026-Jan-17 00:00:00.0000, -2.531952535012322E+09, -1.407041222449763E+09, 1.701850502321685E+08,
2461064.500000000, A.D. 2026-Jan-24 00:00:00.0000, -2.530112859197903E+09, -1.410890645172596E+09, 1.705631788615738E+08,
2461071.500000000, A.D. 2026-Jan-31 00:00:00.0000, -2.528268137668640E+09, -1.414737329707643E+09, 1.709409690857969E+08,
2461078.500000000, A.D. 2026-Feb-07 00:00:00.0000, -2.526418376387872E+09, -1.418581270405951E+09, 1.713184203252634E+08,
2461085.500000000, A.D. 2026-Feb-14 00:00:00.0000, -2.524563580953575E+09, -1.422422462530892E+09, 1.716955319044970E+08,
2461092.500000000, A.D. 2026-Feb-21 00:00:00.0000, -2.522703755575792E+09, -1.426260902162973E+09, 1.720723029634799E+08,
2461099.500000000, A.D. 2026-Feb-28 00:00:00.0000, -2.520838902447612E+09, -1.430096584522313E+09, 1.724487325339028E+08,
2461106.500000000, A.D. 2026-Mar-07 00:00:00.0000, -2.518969023568239E+09, -1.433929502658395E+09, 1.728248198098450E+08,
2461113.500000000, A.D. 2026-Mar-14 00:00:00.0000, -2.517094122242479E+09, -1.437759648839694E+09, 1.732005641677393E+08,
2461120.500000000, A.D. 2026-Mar-21 00:00:00.0000, -2.515214202473720E+09, -1.441587015745108E+09, 1.735759650090356E+08,
2461127.500000000, A.D. 2026-Mar-28 00:00:00.0000, -2.513329268259827E+09, -1.445411596428507E+09, 1.739510216940503E+08,
2461134.500000000, A.D. 2026-Apr-04 00:00:00.0000, -2.511439323395667E+09, -1.449233384022060E+09, 1.743257335436124E+08,
2461141.500000000, A.D. 2026-Apr-11 00:00:00.0000, -2.509544371508332E+09, -1.453052371538284E+09, 1.747000998541539E+08,
2461148.500000000, A.D. 2026-Apr-18 00:00:00.0000, -2.507644416165665E+09, -1.456868551777540E+09, 1.750741199112842E+08,
2461155.500000000, A.D. 2026-Apr-25 00:00:00.0000, -2.505739461012018E+09, -1.460681917326274E+09, 1.754477929990537E+08,
2461162.500000000, A.D. 2026-May-02 00:00:00.0000, -2.503829509900228E+09, -1.464492460675641E+09, 1.758211183998585E+08,
2461169.500000000, A.D. 2026-May-09 00:00:00.0000, -2.501914566894810E+09, -1.468300174526723E+09, 1.761940953683164E+08,
2461176.500000000, A.D. 2026-May-16 00:00:00.0000, -2.499994635768060E+09, -1.472105052143974E+09, 1.765667230558736E+08,
2461183.500000000, A.D. 2026-May-23 00:00:00.0000, -2.498069718936939E+09, -1.475907086734502E+09, 1.769390004650206E+08,
2461190.500000000, A.D. 2026-May-30 00:00:00.0000, -2.496139817918986E+09, -1.479706269533566E+09, 1.773109266498648E+08,
2461197.500000000, A.D. 2026-Jun-06 00:00:00.0000, -2.494204935624452E+09, -1.483502589869856E+09, 1.776825009245709E+08,
2461204.500000000, A.D. 2026-Jun-13 00:00:00.0000, -2.492265076818659E+09, -1.487296037011576E+09, 1.780537227595571E+08,
2461211.500000000, A.D. 2026-Jun-20 00:00:00.0000, -2.490320247255577E+09, -1.491086600867190E+09, 1.784245916503338E+08,
2461218.500000000, A.D. 2026-Jun-27 00:00:00.0000, -2.488370453180994E+09, -1.494874271880654E+09, 1.787951070867285E+08,
2461225.500000000, A.D. 2026-Jul-04 00:00:00.0000, -2.486415701205390E+09, -1.498659040896002E+09, 1.791652685589096E+08,
2461232.500000000, A.D. 2026-Jul-11 00:00:00.0000, -2.484455998292589E+09, -1.502440899123128E+09, 1.795350755658603E+08,
2461239.500000000, A.D. 2026-Jul-18 00:00:00.0000, -2.482491351771494E+09, -1.506219838178990E+09, 1.799045276196378E+08,
2461246.500000000, A.D. 2026-Jul-25 00:00:00.0000, -2.480521769346484E+09, -1.509995850201427E+09, 1.802736242431694E+08,
2461253.500000000, A.D. 2026-Aug-01 00:00:00.0000, -2.478547259058383E+09, -1.513768928083666E+09, 1.806423649530480E+08,
2461260.500000000, A.D. 2026-Aug-08 00:00:00.0000, -2.476567828981190E+09, -1.517539065865284E+09, 1.810107492045373E+08,
2461267.500000000, A.D. 2026-Aug-15 00:00:00.0000, -2.474583486239581E+09, -1.521306258829149E+09, 1.813787762974378E+08,
2461274.500000000, A.D. 2026-Aug-22 00:00:00.0000, -2.472594236108352E+09, -1.525070502082875E+09, 1.817464454123580E+08,
$$EOE